start=new Date('2022-12-22T00:00:00.000Z').valueOf();
sats=[{"COUNTRY_CODE":"US","APOAPSIS":"548.502","PERIAPSIS":"546.019","TLE_LINE1":"1 46702U 20073AJ  22355.56602882 -.00005037  00000-0 -31964-3 0  9998","BSTAR":"-0.00031964000000","REV_AT_EPOCH":"12092","LAUNCH_DATE":"2020-10-18","OBJECT_TYPE":"PAYLOAD","INCLINATION":"53.0527","SEMIMAJOR_AXIS":"6925.395","OBJECT_ID":"2020-073AJ","OBJECT_NAME":"STARLINK-1802","SITE":"AFETR","TLE_LINE2":"2 46702  53.0527  92.4631 0001793  52.1106 308.0045 15.06384718120920","FILE":"3716014","CENTER_NAME":"EARTH","EPHEMERIS_TYPE":"0","MEAN_ELEMENT_THEORY":"SGP4","MEAN_ANOMALY":"308.0045","PERIOD":"95.593","ECCENTRICITY":"0.00017930","GP_ID":"221083855","MEAN_MOTION":"15.06384718","MEAN_MOTION_DDOT":"0.0000000000000","NORAD_CAT_ID":"46702","EPOCH":"2022-12-21T13:35:04.890048","CLASSIFICATION_TYPE":"U","RCS_SIZE":"LARGE","TIME_SYSTEM":"UTC","MEAN_MOTION_DOT":"-0.00005037","ARG_OF_PERICENTER":"52.1106","RA_OF_ASC_NODE":"92.4631","REF_FRAME":"TEME","DECAY_DATE":null,"ELEMENT_SET_NO":"999"},{"ECCENTRICITY":"0.00017720","MEAN_MOTION_DDOT":"0.0000000000000","MEAN_MOTION":"15.06384956","GP_ID":"221129312","MEAN_ELEMENT_THEORY":"SGP4","EPHEMERIS_TYPE":"0","MEAN_ANOMALY":"298.4805","PERIOD":"95.593","TIME_SYSTEM":"UTC","RA_OF_ASC_NODE":"112.3203","ARG_OF_PERICENTER":"61.6363","MEAN_MOTION_DOT":"-0.00003198","ELEMENT_SET_NO":"999","REF_FRAME":"TEME","DECAY_DATE":null,"NORAD_CAT_ID":"46703","EPOCH":"2022-12-21T14:20:12.748992","RCS_SIZE":"LARGE","CLASSIFICATION_TYPE":"U","PERIAPSIS":"546.032","BSTAR":"-0.00019599000000","TLE_LINE1":"1 46703U 20073AK  22355.59736978 -.00003198  00000-0 -19599-3 0  9992","REV_AT_EPOCH":"12064","LAUNCH_DATE":"2020-10-18","OBJECT_TYPE":"PAYLOAD","COUNTRY_CODE":"US","APOAPSIS":"548.487","TLE_LINE2":"2 46703  53.0556 112.3203 0001772  61.6363 298.4805 15.06384956120646","FILE":"3717016","CENTER_NAME":"EARTH","INCLINATION":"53.0556","SEMIMAJOR_AXIS":"6925.395","OBJECT_ID":"2020-073AK","SITE":"AFETR","OBJECT_NAME":"STARLINK-1803"},{"APOAPSIS":"548.852","COUNTRY_CODE":"US","LAUNCH_DATE":"2020-10-18","OBJECT_TYPE":"PAYLOAD","REV_AT_EPOCH":"12093","TLE_LINE1":"1 46704U 20073AL  22355.64343691 -.00000403  00000-0 -81406-5 0  9999","BSTAR":"-0.00000814060000","PERIAPSIS":"545.579","OBJECT_NAME":"STARLINK-1804","SITE":"AFETR","OBJECT_ID":"2020-073AL","SEMIMAJOR_AXIS":"6925.351","INCLINATION":"53.0553","CENTER_NAME":"EARTH","FILE":"3717016","TLE_LINE2":"2 46704  53.0553  92.1309 0002363  32.4130 327.7004 15.06399283120939","PERIOD":"95.592","MEAN_ANOMALY":"327.7004","EPHEMERIS_TYPE":"0","MEAN_ELEMENT_THEORY":"SGP4","GP_ID":"221128987","MEAN_MOTION":"15.06399283","MEAN_MOTION_DDOT":"0.0000000000000","ECCENTRICITY":"0.00023630","CLASSIFICATION_TYPE":"U","RCS_SIZE":"LARGE","EPOCH":"2022-12-21T15:26:32.949024","NORAD_CAT_ID":"46704","DECAY_DATE":null,"REF_FRAME":"TEME","ELEMENT_SET_NO":"999","MEAN_MOTION_DOT":"-0.00000403","RA_OF_ASC_NODE":"92.1309","ARG_OF_PERICENTER":"32.4130","TIME_SYSTEM":"UTC"},{"COUNTRY_CODE":"US","APOAPSIS":"548.372","REV_AT_EPOCH":"12045","OBJECT_TYPE":"PAYLOAD","LAUNCH_DATE":"2020-10-18","PERIAPSIS":"546.038","BSTAR":"0.00013822000000","TLE_LINE1":"1 46705U 20073AM  22355.72315526  .00001778  00000-0  13822-3 0  9994","OBJECT_ID":"2020-073AM","SITE":"AFETR","OBJECT_NAME":"STARLINK-1805","INCLINATION":"53.0547","SEMIMAJOR_AXIS":"6925.340","FILE":"3717016","CENTER_NAME":"EARTH","TLE_LINE2":"2 46705  53.0547 126.7609 0001685  66.4409 293.6756 15.06402902120457","MEAN_ANOMALY":"293.6756","PERIOD":"95.592","MEAN_ELEMENT_THEORY":"SGP4","EPHEMERIS_TYPE":"0","ECCENTRICITY":"0.00016850","MEAN_MOTION_DDOT":"0.0000000000000","MEAN_MOTION":"15.06402902","GP_ID":"221129320","RCS_SIZE":"LARGE","CLASSIFICATION_TYPE":"U","NORAD_CAT_ID":"46705","EPOCH":"2022-12-21T17:21:20.614464","ELEMENT_SET_NO":"999","REF_FRAME":"TEME","DECAY_DATE":null,"TIME_SYSTEM":"UTC","ARG_OF_PERICENTER":"66.4409","RA_OF_ASC_NODE":"126.7609","MEAN_MOTION_DOT":"0.00001778"},{"MEAN_MOTION_DDOT":"0.0000000000000","MEAN_MOTION":"15.06382291","GP_ID":"221083872","ECCENTRICITY":"0.00016980","PERIOD":"95.593","MEAN_ANOMALY":"307.6757","MEAN_ELEMENT_THEORY":"SGP4","EPHEMERIS_TYPE":"0","ELEMENT_SET_NO":"999","DECAY_DATE":null,"REF_FRAME":"TEME","ARG_OF_PERICENTER":"52.4386","RA_OF_ASC_NODE":"112.7798","MEAN_MOTION_DOT":"-0.00001910","TIME_SYSTEM":"UTC","RCS_SIZE":"LARGE","CLASSIFICATION_TYPE":"U","EPOCH":"2022-12-21T11:56:54.385152","NORAD_CAT_ID":"46706","LAUNCH_DATE":"2020-10-18","OBJECT_TYPE":"PAYLOAD","REV_AT_EPOCH":"12063","BSTAR":"-0.00010941000000","TLE_LINE1":"1 46706U 20073AN  22355.49785168 -.00001910  00000-0 -10941-3 0  9991","PERIAPSIS":"546.092","APOAPSIS":"548.444","COUNTRY_CODE":"US","CENTER_NAME":"EARTH","FILE":"3716018","TLE_LINE2":"2 46706  53.0539 112.7798 0001698  52.4386 307.6757 15.06382291120631","SITE":"AFETR","OBJECT_NAME":"STARLINK-1807","OBJECT_ID":"2020-073AN","SEMIMAJOR_AXIS":"6925.403","INCLINATION":"53.0539"},{"TIME_SYSTEM":"UTC","ARG_OF_PERICENTER":"66.9258","RA_OF_ASC_NODE":"92.5294","MEAN_MOTION_DOT":"-0.00004677","ELEMENT_SET_NO":"999","REF_FRAME":"TEME","DECAY_DATE":null,"NORAD_CAT_ID":"46707","EPOCH":"2022-12-21T13:19:09.554016","RCS_SIZE":"LARGE","CLASSIFICATION_TYPE":"U","ECCENTRICITY":"0.00014410","MEAN_MOTION_DDOT":"0.0000000000000","MEAN_MOTION":"15.06387153","GP_ID":"221084377","MEAN_ELEMENT_THEORY":"SGP4","EPHEMERIS_TYPE":"0","MEAN_ANOMALY":"293.1883","PERIOD":"95.593","TLE_LINE2":"2 46707  53.0544  92.5294 0001441  66.9258 293.1883 15.06387153120932","FILE":"3716018","CENTER_NAME":"EARTH","INCLINATION":"53.0544","SEMIMAJOR_AXIS":"6925.388","OBJECT_ID":"2020-073AP","SITE":"AFETR","OBJECT_NAME":"STARLINK-1808","PERIAPSIS":"546.255","BSTAR":"-0.00029537000000","TLE_LINE1":"1 46707U 20073AP  22355.55497169 -.00004677  00000-0 -29537-3 0  9994","REV_AT_EPOCH":"12093","LAUNCH_DATE":"2020-10-18","OBJECT_TYPE":"PAYLOAD","COUNTRY_CODE":"US","APOAPSIS":"548.251"},{"CLASSIFICATION_TYPE":"U","RCS_SIZE":"LARGE","EPOCH":"2022-12-21T18:19:44.339232","NORAD_CAT_ID":"46709","REF_FRAME":"TEME","DECAY_DATE":null,"ELEMENT_SET_NO":"999","MEAN_MOTION_DOT":"-0.00002185","RA_OF_ASC_NODE":"126.7084","ARG_OF_PERICENTER":"67.7474","TIME_SYSTEM":"UTC","PERIOD":"95.593","MEAN_ANOMALY":"292.3670","EPHEMERIS_TYPE":"0","MEAN_ELEMENT_THEORY":"SGP4","MEAN_MOTION":"15.06394317","GP_ID":"221129328","MEAN_MOTION_DDOT":"0.0000000000000","ECCENTRICITY":"0.00014640","OBJECT_NAME":"STARLINK-1810","SITE":"AFETR","OBJECT_ID":"2020-073AR","SEMIMAJOR_AXIS":"6925.366","INCLINATION":"53.0548","CENTER_NAME":"EARTH","FILE":"3717036","TLE_LINE2":"2 46709  53.0548 126.7084 0001464  67.7474 292.3670 15.06394317120451","APOAPSIS":"548.245","COUNTRY_CODE":"US","LAUNCH_DATE":"2020-10-18","OBJECT_TYPE":"PAYLOAD","REV_AT_EPOCH":"12045","TLE_LINE1":"1 46709U 20073AR  22355.76370763 -.00002185  00000-0 -12788-3 0  9991","BSTAR":"-0.00012788000000","PERIAPSIS":"546.217"},{"FILE":"3716015","CENTER_NAME":"EARTH","TLE_LINE2":"2 46710  53.0550 127.6946 0001623  63.6600 296.4556 15.06389527120428","OBJECT_ID":"2020-073AS","SITE":"AFETR","OBJECT_NAME":"STARLINK-1811","INCLINATION":"53.0550","SEMIMAJOR_AXIS":"6925.381","REV_AT_EPOCH":"12042","OBJECT_TYPE":"PAYLOAD","LAUNCH_DATE":"2020-10-18","PERIAPSIS":"546.122","BSTAR":"-0.00013403000000","TLE_LINE1":"1 46710U 20073AS  22355.51673710 -.00002277  00000-0 -13403-3 0  9991","COUNTRY_CODE":"US","APOAPSIS":"548.370","ELEMENT_SET_NO":"999","REF_FRAME":"TEME","DECAY_DATE":null,"TIME_SYSTEM":"UTC","ARG_OF_PERICENTER":"63.6600","RA_OF_ASC_NODE":"127.6946","MEAN_MOTION_DOT":"-0.00002277","RCS_SIZE":"LARGE","CLASSIFICATION_TYPE":"U","NORAD_CAT_ID":"46710","EPOCH":"2022-12-21T12:24:06.085440","ECCENTRICITY":"0.00016230","MEAN_MOTION_DDOT":"0.0000000000000","GP_ID":"221084382","MEAN_MOTION":"15.06389527","MEAN_ANOMALY":"296.4556","PERIOD":"95.593","MEAN_ELEMENT_THEORY":"SGP4","EPHEMERIS_TYPE":"0"},{"SEMIMAJOR_AXIS":"6925.377","INCLINATION":"53.0545","OBJECT_NAME":"STARLINK-1813","SITE":"AFETR","OBJECT_ID":"2020-073AT","TLE_LINE2":"2 46711  53.0545 113.4015 0001590  58.6952 301.4193 15.06390634120133","CENTER_NAME":"EARTH","FILE":"3716551","APOAPSIS":"548.343","COUNTRY_CODE":"US","TLE_LINE1":"1 46711U 20073AT  22355.35777450 -.00000370  00000-0 -59322-5 0  9994","BSTAR":"-0.00000593220000","PERIAPSIS":"546.141","LAUNCH_DATE":"2020-10-18","OBJECT_TYPE":"PAYLOAD","REV_AT_EPOCH":"12013","EPOCH":"2022-12-21T08:35:11.716800","NORAD_CAT_ID":"46711","CLASSIFICATION_TYPE":"U","RCS_SIZE":"LARGE","MEAN_MOTION_DOT":"-0.00000370","ARG_OF_PERICENTER":"58.6952","RA_OF_ASC_NODE":"113.4015","TIME_SYSTEM":"UTC","REF_FRAME":"TEME","DECAY_DATE":null,"ELEMENT_SET_NO":"999","EPHEMERIS_TYPE":"0","MEAN_ELEMENT_THEORY":"SGP4","PERIOD":"95.593","MEAN_ANOMALY":"301.4193","GP_ID":"221114010","MEAN_MOTION":"15.06390634","MEAN_MOTION_DDOT":"0.0000000000000","ECCENTRICITY":"0.00015900"},{"EPHEMERIS_TYPE":"0","MEAN_ELEMENT_THEORY":"SGP4","MEAN_ANOMALY":"284.3508","PERIOD":"95.592","ECCENTRICITY":"0.00015280","GP_ID":"221083878","MEAN_MOTION":"15.06396692","MEAN_MOTION_DDOT":"0.0000000000000","NORAD_CAT_ID":"46712","EPOCH":"2022-12-21T11:14:28.112352","CLASSIFICATION_TYPE":"U","RCS_SIZE":"LARGE","TIME_SYSTEM":"UTC","MEAN_MOTION_DOT":"0.00000537","ARG_OF_PERICENTER":"75.7650","RA_OF_ASC_NODE":"113.0321","DECAY_DATE":null,"REF_FRAME":"TEME","ELEMENT_SET_NO":"999","COUNTRY_CODE":"US","APOAPSIS":"548.282","PERIAPSIS":"546.166","TLE_LINE1":"1 46712U 20073AU  22355.46838093  .00000537  00000-0  54957-4 0  9999","BSTAR":"0.00005495700000","REV_AT_EPOCH":"12062","LAUNCH_DATE":"2020-10-18","OBJECT_TYPE":"PAYLOAD","INCLINATION":"53.0551","SEMIMAJOR_AXIS":"6925.359","OBJECT_ID":"2020-073AU","OBJECT_NAME":"STARLINK-1814","SITE":"AFETR","TLE_LINE2":"2 46712  53.0551 113.0321 0001528  75.7650 284.3508 15.06396692120626","FILE":"3716015","CENTER_NAME":"EARTH"}];
